0 COSMOS 1642
1 15624U 85023H   13282.38179067 -.00000019  00000-0 -21305-4 0  2544
2 15624 074.0558 229.0103 0050484 050.4535 094.2543 12.56319447309730
0 COSMOS 1642
1 15624U 85023H   13287.31169284 -.00000011  00000-0  27781-4 0  2569
2 15624 074.0567 222.3920 0050578 042.8765 071.0345 12.56319286310351
0 COSMOS 1642
1 15624U 85023H   13289.38531110  .00000012  00000-0  16957-3 0  2572
2 15624 074.0568 219.6084 0050600 039.6763 089.5316 12.56319087310610
0 COSMOS 1642
1 15624U 85023H   13292.17571884  .00000016  00000-0  18994-3 0  2583
2 15624 074.0566 215.8628 0050661 035.4237 109.8454 12.56319157310962
0 COSMOS 1642
1 15624U 85023H   13294.32339679 -.00000010  00000-0  32950-4 0  2591
2 15624 074.0565 212.9798 0050717 032.1596 103.2441 12.56319486311231
